CCSDS_OMM_VERS = 2.0
CREATION_DATE  = 
ORIGINATOR     = 

OBJECT_NAME    = STARLINK-36068
OBJECT_ID      = 2025-280AA
CENTER_NAME    = EARTH
REF_FRAME      = TEME
TIME_SYSTEM    = UTC
MEAN_ELEMENT_THEORY = SGP/SGP4

EPOCH          = 2025-12-21T20:00:01.999008
MEAN_MOTION    = 15.52449815
ECCENTRICITY   = .0003297
INCLINATION    = 70.0001
RA_OF_ASC_NODE = 173.4470
ARG_OF_PERICENTER = 273.9745
MEAN_ANOMALY   = 193.1346

EPHEMERIS_TYPE = 0
CLASSIFICATION_TYPE = U
NORAD_CAT_ID   = 66845
ELEMENT_SET_NO = 999
REV_AT_EPOCH   = 435
BSTAR          = .14101E-2
MEAN_MOTION_DOT = .87322E-3
MEAN_MOTION_DDOT = 0

CCSDS_OMM_VERS = 2.0
CREATION_DATE  = 
ORIGINATOR     = 

OBJECT_NAME    = STARLINK-36055
OBJECT_ID      = 2025-280AB
CENTER_NAME    = EARTH
REF_FRAME      = TEME
TIME_SYSTEM    = UTC
MEAN_ELEMENT_THEORY = SGP/SGP4

EPOCH          = 2025-12-21T20:00:01.999008
MEAN_MOTION    = 15.52444455
ECCENTRICITY   = .0003219
INCLINATION    = 70.0003
RA_OF_ASC_NODE = 173.4510
ARG_OF_PERICENTER = 273.5415
MEAN_ANOMALY   = 189.7390

EPHEMERIS_TYPE = 0
CLASSIFICATION_TYPE = U
NORAD_CAT_ID   = 66846
ELEMENT_SET_NO = 999
REV_AT_EPOCH   = 435
BSTAR          = .15804E-2
MEAN_MOTION_DOT = .98006E-3
MEAN_MOTION_DDOT = 0

CCSDS_OMM_VERS = 2.0
CREATION_DATE  = 
ORIGINATOR     = 

OBJECT_NAME    = STARLINK-36061
OBJECT_ID      = 2025-280AC
CENTER_NAME    = EARTH
REF_FRAME      = TEME
TIME_SYSTEM    = UTC
MEAN_ELEMENT_THEORY = SGP/SGP4

EPOCH          = 2025-12-21T20:00:01.999008
MEAN_MOTION    = 15.52542433
ECCENTRICITY   = .0003353
INCLINATION    = 70.0003
RA_OF_ASC_NODE = 173.4506
ARG_OF_PERICENTER = 274.3882
MEAN_ANOMALY   = 190.7626

EPHEMERIS_TYPE = 0
CLASSIFICATION_TYPE = U
NORAD_CAT_ID   = 66847
ELEMENT_SET_NO = 999
REV_AT_EPOCH   = 431
BSTAR          = -.10462E-2
MEAN_MOTION_DOT = -.64067E-3
MEAN_MOTION_DDOT = 0

CCSDS_OMM_VERS = 2.0
CREATION_DATE  = 
ORIGINATOR     = 

OBJECT_NAME    = STARLINK-36091
OBJECT_ID      = 2025-281A
CENTER_NAME    = EARTH
REF_FRAME      = TEME
TIME_SYSTEM    = UTC
MEAN_ELEMENT_THEORY = SGP/SGP4

EPOCH          = 2025-12-21T20:00:01.999008
MEAN_MOTION    = 15.68982290
ECCENTRICITY   = .0001277
INCLINATION    = 43.0005
RA_OF_ASC_NODE = 66.8286
ARG_OF_PERICENTER = 286.3946
MEAN_ANOMALY   = 172.3704

EPHEMERIS_TYPE = 0
CLASSIFICATION_TYPE = U
NORAD_CAT_ID   = 66848
ELEMENT_SET_NO = 999
REV_AT_EPOCH   = 285
BSTAR          = -.18656E-1
MEAN_MOTION_DOT = -.1957783E-1
MEAN_MOTION_DDOT = 0

CCSDS_OMM_VERS = 2.0
CREATION_DATE  = 
ORIGINATOR     = 

OBJECT_NAME    = STARLINK-36102
OBJECT_ID      = 2025-281B
CENTER_NAME    = EARTH
REF_FRAME      = TEME
TIME_SYSTEM    = UTC
MEAN_ELEMENT_THEORY = SGP/SGP4

EPOCH          = 2025-12-21T20:00:01.999008
MEAN_MOTION    = 15.68973948
ECCENTRICITY   = .0001288
INCLINATION    = 43.0004
RA_OF_ASC_NODE = 66.8234
ARG_OF_PERICENTER = 286.2097
MEAN_ANOMALY   = 174.4726

EPHEMERIS_TYPE = 0
CLASSIFICATION_TYPE = U
NORAD_CAT_ID   = 66849
ELEMENT_SET_NO = 999
REV_AT_EPOCH   = 285
BSTAR          = -.18514E-1
MEAN_MOTION_DOT = -.1944005E-1
MEAN_MOTION_DDOT = 0

CCSDS_OMM_VERS = 2.0
CREATION_DATE  = 
ORIGINATOR     = 

OBJECT_NAME    = STARLINK-36105
OBJECT_ID      = 2025-281C
CENTER_NAME    = EARTH
REF_FRAME      = TEME
TIME_SYSTEM    = UTC
MEAN_ELEMENT_THEORY = SGP/SGP4

EPOCH          = 2025-12-21T20:00:01.999008
MEAN_MOTION    = 15.68977105
ECCENTRICITY   = .0001335
INCLINATION    = 43.0003
RA_OF_ASC_NODE = 66.8188
ARG_OF_PERICENTER = 286.0790
MEAN_ANOMALY   = 176.5207

EPHEMERIS_TYPE = 0
CLASSIFICATION_TYPE = U
NORAD_CAT_ID   = 66850
ELEMENT_SET_NO = 999
REV_AT_EPOCH   = 285
BSTAR          = -.18575E-1
MEAN_MOTION_DOT = -.1949992E-1
MEAN_MOTION_DDOT = 0

CCSDS_OMM_VERS = 2.0
CREATION_DATE  = 
ORIGINATOR     = 

OBJECT_NAME    = STARLINK-36094
OBJECT_ID      = 2025-281D
CENTER_NAME    = EARTH
REF_FRAME      = TEME
TIME_SYSTEM    = UTC
MEAN_ELEMENT_THEORY = SGP/SGP4

EPOCH          = 2025-12-21T20:00:01.999008
MEAN_MOTION    = 15.68950111
ECCENTRICITY   = .0001651
INCLINATION    = 43.0002
RA_OF_ASC_NODE = 66.8134
ARG_OF_PERICENTER = 285.8893
MEAN_ANOMALY   = 178.6888

EPHEMERIS_TYPE = 0
CLASSIFICATION_TYPE = U
NORAD_CAT_ID   = 66851
ELEMENT_SET_NO = 999
REV_AT_EPOCH   = 285
BSTAR          = -.1877E-1
MEAN_MOTION_DOT = -.1966274E-1
MEAN_MOTION_DDOT = 0

CCSDS_OMM_VERS = 2.0
CREATION_DATE  = 
ORIGINATOR     = 

OBJECT_NAME    = STARLINK-35992
OBJECT_ID      = 2025-281E
CENTER_NAME    = EARTH
REF_FRAME      = TEME
TIME_SYSTEM    = UTC
MEAN_ELEMENT_THEORY = SGP/SGP4

EPOCH          = 2025-12-21T20:00:01.999008
MEAN_MOTION    = 15.68978230
ECCENTRICITY   = .0001225
INCLINATION    = 43.0003
RA_OF_ASC_NODE = 66.8091
ARG_OF_PERICENTER = 288.0679
MEAN_ANOMALY   = 178.3670

EPHEMERIS_TYPE = 0
CLASSIFICATION_TYPE = U
NORAD_CAT_ID   = 66852
ELEMENT_SET_NO = 999
REV_AT_EPOCH   = 285
BSTAR          = -.186E-1
MEAN_MOTION_DOT = -.1952251E-1
MEAN_MOTION_DDOT = 0

CCSDS_OMM_VERS = 2.0
CREATION_DATE  = 
ORIGINATOR     = 

OBJECT_NAME    = STARLINK-35986
OBJECT_ID      = 2025-281F
CENTER_NAME    = EARTH
REF_FRAME      = TEME
TIME_SYSTEM    = UTC
MEAN_ELEMENT_THEORY = SGP/SGP4

EPOCH          = 2025-12-21T20:00:01.999008
MEAN_MOTION    = 15.68972033
ECCENTRICITY   = .0001359
INCLINATION    = 43.0003
RA_OF_ASC_NODE = 66.8043
ARG_OF_PERICENTER = 287.5849
MEAN_ANOMALY   = 180.7688

EPHEMERIS_TYPE = 0
CLASSIFICATION_TYPE = U
NORAD_CAT_ID   = 66853
ELEMENT_SET_NO = 999
REV_AT_EPOCH   = 285
BSTAR          = -.18514E-1
MEAN_MOTION_DOT = -.1943921E-1
MEAN_MOTION_DDOT = 0

CCSDS_OMM_VERS = 2.0
CREATION_DATE  = 
ORIGINATOR     = 

OBJECT_NAME    = STARLINK-36087
OBJECT_ID      = 2025-281G
CENTER_NAME    = EARTH
REF_FRAME      = TEME
TIME_SYSTEM    = UTC
MEAN_ELEMENT_THEORY = SGP/SGP4

EPOCH          = 2025-12-21T20:00:01.999008
MEAN_MOTION    = 15.68942127
ECCENTRICITY   = .000099
INCLINATION    = 43.0005
RA_OF_ASC_NODE = 66.7991
ARG_OF_PERICENTER = 283.0659
MEAN_ANOMALY   = 187.2527

EPHEMERIS_TYPE = 0
CLASSIFICATION_TYPE = U
NORAD_CAT_ID   = 66854
ELEMENT_SET_NO = 999
REV_AT_EPOCH   = 285
BSTAR          = -.185E-1
MEAN_MOTION_DOT = -.1940209E-1
MEAN_MOTION_DDOT = 0

CCSDS_OMM_VERS = 2.0
CREATION_DATE  = 
ORIGINATOR     = 

OBJECT_NAME    = STARLINK-36090
OBJECT_ID      = 2025-281H
CENTER_NAME    = EARTH
REF_FRAME      = TEME
TIME_SYSTEM    = UTC
MEAN_ELEMENT_THEORY = SGP/SGP4

EPOCH          = 2025-12-21T20:00:01.999008
MEAN_MOTION    = 15.68978315
ECCENTRICITY   = .000121
INCLINATION    = 43.0004
RA_OF_ASC_NODE = 66.7944
ARG_OF_PERICENTER = 282.6420
MEAN_ANOMALY   = 189.5449

EPHEMERIS_TYPE = 0
CLASSIFICATION_TYPE = U
NORAD_CAT_ID   = 66855
ELEMENT_SET_NO = 999
REV_AT_EPOCH   = 273
BSTAR          = -.18605E-1
MEAN_MOTION_DOT = -.1952743E-1
MEAN_MOTION_DDOT = 0

CCSDS_OMM_VERS = 2.0
CREATION_DATE  = 
ORIGINATOR     = 

OBJECT_NAME    = STARLINK-36072
OBJECT_ID      = 2025-281J
CENTER_NAME    = EARTH
REF_FRAME      = TEME
TIME_SYSTEM    = UTC
MEAN_ELEMENT_THEORY = SGP/SGP4

EPOCH          = 2025-12-21T20:00:01.999008
MEAN_MOTION    = 15.68981052
ECCENTRICITY   = .0001185
INCLINATION    = 43.0001
RA_OF_ASC_NODE = 66.7893
ARG_OF_PERICENTER = 286.5765
MEAN_ANOMALY   = 187.5241

EPHEMERIS_TYPE = 0
CLASSIFICATION_TYPE = U
NORAD_CAT_ID   = 66856
ELEMENT_SET_NO = 999
REV_AT_EPOCH   = 285
BSTAR          = -.18633E-1
MEAN_MOTION_DOT = -.1955519E-1
MEAN_MOTION_DDOT = 0

