STARLINK-36068          
1 66845U 25280AA  25355.83335647  .00087322  00000+0  14101-2 0  9995
2 66845  70.0001 173.4470 0003297 273.9745 193.1346 15.52449815  4356
STARLINK-36055          
1 66846U 25280AB  25355.83335647  .00098006  00000+0  15804-2 0  9998
2 66846  70.0003 173.4510 0003219 273.5415 189.7390 15.52444455  4353
STARLINK-36061          
1 66847U 25280AC  25355.83335647 -.00064067  00000+0 -10462-2 0  9996
2 66847  70.0003 173.4506 0003353 274.3882 190.7626 15.52542433  4310
STARLINK-36091          
1 66848U 25281A   25355.83335647 -.01957783  00000+0 -18656-1 0  9997
2 66848  43.0005  66.8286 0001277 286.3946 172.3704 15.68982290  2856
STARLINK-36102          
1 66849U 25281B   25355.83335647 -.01944005  00000+0 -18514-1 0  9994
2 66849  43.0004  66.8234 0001288 286.2097 174.4726 15.68973948  2854
STARLINK-36105          
1 66850U 25281C   25355.83335647 -.01949992  00000+0 -18575-1 0  9993
2 66850  43.0003  66.8188 0001335 286.0790 176.5207 15.68977105  2850
STARLINK-36094          
1 66851U 25281D   25355.83335647 -.01966274  00000+0 -18770-1 0  9993
2 66851  43.0002  66.8134 0001651 285.8893 178.6888 15.68950111  2859
STARLINK-35992          
1 66852U 25281E   25355.83335647 -.01952251  00000+0 -18600-1 0  9996
2 66852  43.0003  66.8091 0001225 288.0679 178.3670 15.68978230  2855
STARLINK-35986          
1 66853U 25281F   25355.83335647 -.01943921  00000+0 -18514-1 0  9995
2 66853  43.0003  66.8043 0001359 287.5849 180.7688 15.68972033  2855
STARLINK-36087          
1 66854U 25281G   25355.83335647 -.01940209  00000+0 -18500-1 0  9997
2 66854  43.0005  66.7991 0000990 283.0659 187.2527 15.68942127  2854
STARLINK-36090          
1 66855U 25281H   25355.83335647 -.01952743  00000+0 -18605-1 0  9990
2 66855  43.0004  66.7944 0001210 282.6420 189.5449 15.68978315  2732
STARLINK-36072          
1 66856U 25281J   25355.83335647 -.01955519  00000+0 -18633-1 0  9996
2 66856  43.0001  66.7893 0001185 286.5765 187.5241 15.68981052  2852
